KUIPER-00112            
1 65150U 25171U   26022.50002314 -.00015562  00000+0 -20169-2 0  9990
2 65150  51.9026 359.8467 0001024  79.4830 156.3902 14.79936255  5712
KUIPER-00114            
1 65151U 25171V   26022.40037843  .00002364  00000+0  33904-3 0  9991
2 65151  51.9019  20.2947 0002901 357.1003   2.9942 14.79931174 25784
KUIPER-00115            
1 65152U 25171W   26022.50002314  .00013819  00000+0  18385-2 0  9990
2 65152  51.9010  12.3415 0001744  53.4890  72.9982 14.79919119  5630
KUIPER-00116            
1 65153U 25171X   26021.42376625  .00010570  00000+0  14087-2 0  9996
2 65153  51.9008  22.1354 0008725 301.0326  58.9779 14.80051170 25671
KUIPER-00118            
1 65154U 25171Y   26022.36679075 -.00030815  00000+0 -40314-2 0  9994
2 65154  51.9012  20.4248 0001405  27.6198 332.4839 14.79935432 25785
KUIPER-00119            
1 65155U 25171Z   26022.37975743  .00004734  00000+0  64794-3 0  9995
2 65155  51.9013   7.9460 0007696 337.6906  22.3720 14.80032257 25950
KUIPER-00120            
1 65762U 25217A   26022.35556244  .00003828  00000+0  57555-3 0  9999
2 65762  51.8976 257.3597 0003698 127.8559 232.2737 14.76440849 17882
KUIPER-00132            
1 65763U 25217B   26021.99425499  .00060324  00000+0  15699-2 0  9992
2 65763  51.8590 229.9219 0008398 156.4609 203.6764 15.38289484 18234
